STARLINK-1527           
1 46048U 20055X   26068.53013343  .00011339  00000+0  39455-3 0  9993
2 46048  53.1608 114.6784 0001302 108.7364 251.3778 15.30184962309029
TEVEL2-3                
1 63218U 25052J   26068.64540225  .00020365  00000+0  69446-3 0  9991
2 63218  97.3994 324.7775 0004761 105.7353 254.4413 15.30377031 54855
